COSMOS 2251 DEB         
1 35959U 93036AUZ 21264.71425499  .00000030  00000-0  20607-4 0  9990
2 35959  74.0306 252.7890 0023188 345.8154  14.2342 14.32691424628219
COSMOS 2251 DEB         
1 35960U 93036AVA 21263.90832496  .00004527  00000-0  35054-3 0  9997
2 35960  74.0108 320.5229 0054874  77.1677 283.5633 15.00553565663584
COSMOS 2251 DEB         
1 35961U 93036AVB 21264.55422512  .00000745  00000-0  46639-3 0  9993
2 35961  73.9322  12.6393 0212597 259.3898  98.3226 13.95925176410908
COSMOS 2251 DEB         
1 35962U 93036AVC 21263.53242097  .00001625  00000-0  46874-3 0  9998
2 35962  74.0086 210.2120 0047308 274.9258  84.6499 14.44833288435635
COSMOS 2251 DEB         
1 35965U 93036AVF 21264.52021198  .00006838  00000-0  52217-3 0  9997
2 35965  74.0347 349.0011 0027566 111.6198 248.7931 15.01851996499209
COSMOS 2251 DEB         
1 35966U 93036AVG 21264.53182295  .00000606  00000-0  27937-3 0  9993
2 35966  74.0414 196.1811 0161874 297.7623  60.7185 14.16557721496310
COSMOS 2251 DEB         
1 35968U 93036AVJ 21263.65463947  .00002623  00000-0  27918-3 0  9993
2 35968  73.7072 233.1448 0082031  30.0435 330.5411 14.87102768671008
COSMOS 2251 DEB         
1 35970U 93036AVL 21265.48078797  .00001004  00000-0  21179-3 0  9999
2 35970  74.0418 332.3267 0037618 105.3124 255.2205 14.60356043640819
COSMOS 2251 DEB         
1 35974U 93036AVQ 21264.69949666  .00001156  00000-0  27795-3 0  9995
2 35974  74.0305  56.5808 0015215 178.3514 181.7702 14.54436954434871
COSMOS 2251 DEB         
1 35975U 93036AVR 21261.51924685  .00000805  00000-0  40291-3 0  9994
2 35975  74.0568 206.8180 0136102 299.7548  59.0110 14.13623747421756
COSMOS 2251 DEB         
1 35976U 93036AVS 21264.31392085  .00000611  00000-0  21210-3 0  9994
2 35976  74.0407 256.5648 0061307 345.3014  14.6353 14.36581491643688
COSMOS 2251 DEB         
1 35979U 93036AVV 21264.91260981  .00000357  00000-0  83622-4 0  9995
2 35979  74.0196 320.4222 0079529 117.4215  56.8295 14.56407244661724
COSMOS 2251 DEB         
1 35980U 93036AVW 21264.03806970  .00000551  00000-0  17716-3 0  9990
2 35980  73.9198 148.9720 0075443 253.5543 105.7311 14.40237155391570
COSMOS 2251 DEB         
1 35982U 93036AVY 21265.32060531  .00000392  00000-0  99941-4 0  9994
2 35982  74.0619  28.5122 0077722 134.5424 226.2122 14.52209263638394
COSMOS 2251 DEB         
1 35983U 93036AVZ 21261.13314430  .00005779  00000-0  66089-3 0  9990
2 35983  74.0330 183.4642 0010826 323.2661  36.7775 14.86198664644760
COSMOS 2251 DEB         
1 35984U 93036AWA 21263.13378992  .00003829  00000-0  25054-3 0  9997
2 35984  73.9714  54.2919 0110803 355.4079   4.6080 15.03188491647609
COSMOS 2251 DEB         
1 35986U 93036AWC 21264.93589558  .00001603  00000-0  30575-3 0  9992
2 35986  74.0216 331.2471 0013867  98.8359  76.5789 14.64813666639680
COSMOS 2251 DEB         
1 35987U 93036AWD 21263.39430286  .00000431  00000-0  16712-3 0  9990
2 35987  74.0018 289.3436 0057012  54.3840 306.2602 14.32054833388931
COSMOS 2251 DEB         
1 35989U 93036AWF 21265.25646441  .00000091  00000-0  41438-4 0  9997
2 35989  74.0373 233.2908 0023841 331.8906  28.0957 14.34627774651238
COSMOS 2251 DEB         
1 35991U 93036AWH 21265.36219291  .00030832  00000-0  16001-2 0  9993
2 35991  73.9043  36.8957 0059331  72.7451 288.0224 15.14446568661025
COSMOS 2251 DEB         
1 35993U 93036AWK 21265.07372182  .00000452  00000-0  11869-3 0  9995
2 35993  74.0215  24.5144 0036826 231.9665 127.8171 14.51700050638756
COSMOS 2251 DEB         
1 35996U 93036AWN 21264.85424295  .00000505  00000-0  56305-4 0  9990
2 35996  74.0245 325.6712 0139854 100.2587 261.4394 14.83251048493118
COSMOS 2251 DEB         
1 35997U 93036AWP 21264.47461901  .00000382  00000-0  12663-3 0  9995
2 35997  74.0497 180.0453 0019973 276.3314  83.5567 14.41107273485935
COSMOS 2251 DEB         
1 36000U 93036AWS 21264.36119166  .00000883  00000-0  24791-3 0  9993
2 36000  74.0195 152.5525 0079000 278.3139  80.9067 14.45695683376626
COSMOS 2251 DEB         
1 36002U 93036AWU 21264.97665408  .00000998  00000-0  15682-3 0  9993
2 36002  74.0134 156.3736 0073643 319.5963  39.9752 14.72302966444065
COSMOS 2251 DEB         
1 36004U 93036AWW 21265.07325829  .00003534  00000-0  14139-3 0  9992
2 36004  73.9129 298.1964 0086961 207.9625 151.6888 15.22072879671033
COSMOS 2251 DEB         
1 36005U 93036AWX 21264.87334665  .00000076  00000-0  29599-4 0  9993
2 36005  74.0259  92.5614 0064897 247.6713 111.7558 14.44509025653684
COSMOS 2251 DEB         
1 36007U 93036AWZ 21242.23280236  .00000892  00000-0  15515-3 0  9993
2 36007  74.0207 222.1201 0105112  26.2205 344.2360 14.66187263 93845
COSMOS 2251 DEB         
1 36008U 93036AXA 21264.18228591  .00000993  00000-0  59337-3 0  9990
2 36008  74.0168  96.6604 0226825 229.9160 128.1893 13.96482049389198
COSMOS 2251 DEB         
1 36042U 93036AXD 21265.17876966  .00010742  00000-0  52119-3 0  9997
2 36042  73.8421  83.3945 0044569  58.9511 301.6048 15.17674585652904
COSMOS 2251 DEB         
1 36045U 93036AXG 21265.31883052  .00001066  00000-0  34263-3 0  9999
2 36045  73.7734 117.5991 0089067  52.5974 308.3243 14.38438646639936
COSMOS 2251 DEB         
1 36046U 93036AXH 21264.96818531  .00000289  00000-0  72670-4 0  9991
2 36046  74.0213 336.9954 0067419 146.4910  28.0633 14.54490797415102
COSMOS 2251 DEB         
1 36047U 93036AXJ 21264.72440216  .00001052  00000-0  26064-3 0  9991
2 36047  74.0508  65.8267 0019361 186.9692 173.1204 14.53077299433264
COSMOS 2251 DEB         
1 36048U 93036AXK 21265.37847580  .00000142  00000-0  59139-4 0  9998
2 36048  74.0561 246.5598 0028996 321.8088 189.1352 14.34600812634965
COSMOS 2251 DEB         
1 36049U 93036AXL 21263.08913211  .00000527  00000-0  15914-3 0  9999
2 36049  74.0387 145.3489 0018569 249.5438 110.3726 14.44819800629580
COSMOS 2251 DEB         
1 36050U 93036AXM 21264.59598675  .00000820  00000-0  10117-3 0  9997
2 36050  74.0408  27.2615 0129258 155.5461 205.1924 14.78946805441000
COSMOS 2251 DEB         
1 36052U 93036AXP 21265.26211348  .00001174  00000-0  30591-3 0  9994
2 36052  74.0291 102.1138 0015340 191.8151 168.2652 14.50601819639784
COSMOS 2251 DEB         
1 36053U 93036AXQ 21264.42510799  .00000820  00000-0  28296-3 0  9990
2 36053  73.8826 170.5643 0043677  72.6486 287.9437 14.36929104651684
COSMOS 2251 DEB         
1 36055U 93036AXS 21263.48906138  .00002438  00000-0  12081-2 0  9994
2 36055  74.0444  85.7140 0223002 184.3545 175.5660 14.05646881607981
COSMOS 2251 DEB         
1 36057U 93036AXU 21263.14244960  .00003458  00000-0  37036-3 0  9998
2 36057  73.9712  48.6554 0042403 253.5378 106.1141 14.88464895647895
COSMOS 2251 DEB         
1 36058U 93036AXV 21262.71633005  .00000313  00000-0  89586-4 0  9998
2 36058  74.0256  67.6890 0054696 221.6933 138.0052 14.48457497436814
COSMOS 2251 DEB         
1 36059U 93036AXW 21264.59031090  .00001721  00000-0  50379-3 0  9994
2 36059  74.0065 227.4862 0055639 311.0783  48.5574 14.43829349627868
COSMOS 2251 DEB         
1 36060U 93036AXX 21264.52840624  .00000155  00000-0  60672-4 0  9998
2 36060  74.0317 203.1217 0016883 314.0240  45.9522 14.37335783628091
COSMOS 2251 DEB         
1 36061U 93036AXY 21264.82510720  .00000167  00000-0  73714-4 0  9997
2 36061  74.0233 293.8987 0040478  28.4631 331.8717 14.30138569651518
COSMOS 2251 DEB         
1 36064U 93036AYB 21265.25035556  .00001214  00000-0  35176-3 0  9990
2 36064  73.8421 101.0071 0062661 310.0714  49.4956 14.44487265632455
COSMOS 2251 DEB         
1 36067U 93036AYE 21262.69699250  .00002110  00000-0  43179-3 0  9993
2 36067  74.0122  38.3850 0014209 119.4411 240.8175 14.61397897450432
COSMOS 2251 DEB         
1 36070U 93036AYH 21265.30013631  .00010322  00000-0  11346-2 0  9995
2 36070  74.0193 223.5597 0008164 277.3881  82.6371 14.87691516643277
COSMOS 2251 DEB         
1 36071U 93036AYJ 21264.01638243  .00001228  00000-0  32074-3 0  9992
2 36071  74.0330 130.8761 0029257 204.2870 155.6914 14.50273653423107
COSMOS 2251 DEB         
1 36073U 93036AYL 21265.28746164  .00000110  00000-0  50271-4 0  9995
2 36073  74.0302 262.7472 0026312 343.3509  16.6775 14.32318617630780
COSMOS 2251 DEB         
1 36074U 93036AYM 21265.07214997  .00000495  00000-0  19415-3 0  9997
2 36074  73.9953 299.4589 0053866  25.8000 334.5818 14.31180472641034
COSMOS 2251 DEB         
1 36076U 93036AYP 21259.60145037  .00003689  00000-0  59228-3 0  9993
2 36076  73.8386 230.9823 0036965  29.7044 330.6214 14.71583528640329
COSMOS 2251 DEB         
1 36077U 93036AYQ 21264.62531984  .00002385  00000-0  27283-3 0  9990
2 36077  73.9849  25.1067 0078736 207.3206 152.3823 14.84419209380464
COSMOS 2251 DEB         
1 36079U 93036AYS 21263.50510769  .00004726  00000-0  29941-3 0  9990
2 36079  74.0478 311.3759 0034263  23.9984 336.2794 15.08766577650433
COSMOS 2251 DEB         
1 36366U 93036AYT 21264.46834803  .00000665  00000-0  31752-3 0  9994
2 36366  74.0726 164.7177 0112890 215.1193 144.2473 14.17811424643267
COSMOS 2251 DEB         
1 36367U 93036AYU 21265.33922093  .00000243  00000-0  19214-3 0  9992
2 36367  74.0965 294.9084 0283709  14.3760 346.5223 13.79128236614776
COSMOS 2251 DEB         
1 36368U 93036AYV 21264.79754962  .00001671  00000-0  76096-3 0  9997
2 36368  74.1643 299.4077 0155087 233.2113 125.4716 14.16270697384714
COSMOS 2251 DEB         
1 36369U 93036AYW 21264.93277377  .00000597  00000-0  16871-3 0  9995
2 36369  74.0407 117.9914 0025488 228.3251 131.5726 14.47686218635368
COSMOS 2251 DEB         
1 36371U 93036AYY 21264.48607779  .00000817  00000-0  25493-3 0  9996
2 36371  74.0253 191.2826 0024265 246.4415 113.4192 14.42274841490479
COSMOS 2251 DEB         
1 36372U 93036AYZ 21263.22915754  .00001669  00000-0  47367-3 0  9993
2 36372  74.0114 207.5063 0047748 274.5492  85.0212 14.45594745432348
COSMOS 2251 DEB         
1 36375U 93036AZC 21264.50508446  .00001644  00000-0  32005-3 0  9990
2 36375  74.0500 349.2687 0012676  94.7192 265.5423 14.63864070368929
